BEIDOU-2 IGSO-1 (C06)   
1 36828U 10036A   23125.39471752 -.00000045  00000+0  00000+0 0  9996
2 36828  54.2073 173.2906 0035570 192.3628 106.4609  1.00257991 46807
BEIDOU-2 G4 (C04)       
1 37210U 10057A   23125.16866271 -.00000096  00000+0  00000+0 0  9990
2 37210   0.9283  52.1415 0000736 113.4602 277.9191  1.00272643 45862
BEIDOU-2 IGSO-2 (C07)   
1 37256U 10068A   23124.50934641 -.00000212  00000+0  00000+0 0  9996
2 37256  49.6338 285.7865 0024817 200.0605  27.9729  1.00265814 45365
BEIDOU-2 IGSO-3 (C08)   
1 37384U 11013A   23125.29105559 -.00000199  00000+0  00000+0 0  9998
2 37384  60.7632  51.0864 0022280 185.7704 197.9195  1.00269932 44259
BEIDOU-2 IGSO-4 (C09)   
1 37763U 11038A   23125.59611066  .00000047  00000+0  00000+0 0  9995
2 37763  54.4841 175.8113 0109279 229.2359 125.7301  1.00257482 43229
BEIDOU-2 IGSO-5 (C10)   
1 37948U 11073A   23125.22033574 -.00000159  00000+0  00000+0 0  9996
2 37948  49.7540 285.4351 0086574 218.5196 252.9370  1.00260539 41988
BEIDOU-2 G5 (C05)       
1 38091U 12008A   23124.89632852  .00000071  00000+0  00000+0 0  9993
2 38091   1.4314  65.3154 0005415 270.0215 268.6990  1.00274493 41052
BEIDOU-2 M3 (C11)       
1 38250U 12018A   23125.57896612 -.00000060  00000+0  00000+0 0  9992
2 38250  56.5721 342.9053 0020878 262.4321 278.1603  1.86231247 75088
BEIDOU-2 M4 (C12)       
1 38251U 12018B   23124.70327020 -.00000060  00000+0  00000+0 0  9999
2 38251  56.4850 342.2366 0011803 267.6545  91.0952  1.86234263 75062
BEIDOU-2 M6 (C14)       
1 38775U 12050B   23125.11297825  .00000042  00000+0  00000+0 0  9990
2 38775  55.6077 100.8674 0014997 324.3639 143.8313  1.86231309 72452
BEIDOU-2 G6 (C02)       
1 38953U 12059A   23125.08184660 -.00000160  00000+0  00000+0 0  9997
2 38953   1.7253  82.3651 0011406 312.5426 301.3585  1.00271582 38628
BEIDOU-3S IGSO-1S (C31) 
1 40549U 15019A   23124.95719752 -.00000173  00000+0  00000+0 0  9995
2 40549  51.3190 309.0018 0036936 191.0393 163.3487  1.00284108 29655
BEIDOU-3S M2S (C57)     
1 40748U 15037A   23124.79857206 -.00000060  00000+0  00000+0 0  9990
2 40748  55.7291 340.9034 0005539  29.6684 301.9476  1.86233334 52891
BEIDOU-3S M1S (C58)     
1 40749U 15037B   23125.45179370 -.00000060  00000+0  00000+0 0  9994
2 40749  55.7323 340.8718 0005616 353.5788 189.9161  1.86233005 52908
BEIDOU-3S IGSO-2S (C56) 
1 40938U 15053A   23124.86925279 -.00000154  00000+0  00000+0 0  9997
2 40938  51.0023 272.1616 0046221 192.9305 166.1811  1.00265247 27927
BEIDOU-2 IGSO-6 (C13)   
1 41434U 16021A   23125.20760427 -.00000168  00000+0  00000+0 0  9991
2 41434  58.5738  49.5155 0046951 226.0681 116.7214  1.00263274 26053
BEIDOU-2 G7 (C03)       
1 41586U 16037A   23124.94370535 -.00000338  00000+0  00000+0 0  9992
2 41586   1.5920  65.9778 0009637 351.4996 255.3837  1.00270130 25360
BEIDOU-3 M1 (C19)       
1 43001U 17069A   23125.57799994  .00000040  00000+0  00000+0 0  9995
2 43001  55.7599 100.8950 0012594 295.7255 280.7628  1.86231652 37398
BEIDOU-3 M2 (C20)       
1 43002U 17069B   23124.88003464  .00000043  00000+0  00000+0 0  9992
2 43002  55.7594 100.9537 0010438 313.0400 198.1474  1.86231255 37375
BEIDOU-3 M7 (C27)       
1 43107U 18003A   23124.85276881 -.00000062  00000+0  00000+0 0  9991
2 43107  55.1839 341.6768 0005651  59.2079 240.4284  1.86232772 36137
BEIDOU-3 M8 (C28)       
1 43108U 18003B   23124.32211593 -.00000063  00000+0  00000+0 0  9994
2 43108  55.1784 341.6829 0002314 278.5185  67.4314  1.86230872 36121
BEIDOU-3 M4 (C22)       
1 43207U 18018A   23124.24895728  .00000046  00000+0  00000+0 0  9999
2 43207  55.7176 101.0428 0007314 328.1718  31.7671  1.86231529 35516
BEIDOU-3 M3 (C21)       
1 43208U 18018B   23124.31552962  .00000046  00000+0  00000+0 0  9998
2 43208  55.7168 101.0439 0010377 303.3207  56.5619  1.86231542 35513
BEIDOU-3 M9 (C29)       
1 43245U 18029A   23125.41795130 -.00000060  00000+0  00000+0 0  9996
2 43245  55.0838 339.4018 0001142  30.4012 198.8428  1.86232621 34687
BEIDOU-3 M10 (C30)      
1 43246U 18029B   23124.46457118 -.00000061  00000+0  10000-3 0  9998
2 43246  55.0804 339.4636 0004979  11.8745 344.9595  1.86232803 34652
BEIDOU-2 IGSO-7 (C16)   
1 43539U 18057A   23125.35422913 -.00000051  00000+0  00000+0 0  9992
2 43539  55.1000 172.9018 0060435 230.5758  59.4292  1.00268194 17733
BEIDOU-3 M5 (C23)       
1 43581U 18062A   23124.74934462  .00000024  00000+0  00000+0 0  9993
2 43581  54.1972 221.0967 0002683 276.7815 122.8962  1.86231959 32417
BEIDOU-3 M6 (C24)       
1 43582U 18062B   23124.61207546  .00000022  00000+0  00000+0 0  9994
2 43582  54.1971 221.0903 0004764  20.6759  17.9376  1.86229488 32419
BEIDOU-3 M12 (C26)      
1 43602U 18067A   23124.52820855  .00000023  00000+0  00000+0 0  9997
2 43602  54.2834 219.7374 0006912  18.8366   5.3878  1.86231747 31909
BEIDOU-3 M11 (C25)      
1 43603U 18067B   23124.68684497  .00000025  00000+0  00000+0 0  9997
2 43603  54.2805 219.6979 0003942  11.6092  29.2676  1.86231593 31927
BEIDOU-3 M13 (C32)      
1 43622U 18072A   23125.28435360  .00000040  00000+0  00000+0 0  9991
2 43622  55.6876 100.5519 0009170 292.2530 177.3484  1.86231578 31444
BEIDOU-3 M14 (C33)      
1 43623U 18072B   23125.17891110  .00000041  00000+0  00000+0 0  9990
2 43623  55.6892 100.5482 0006812 309.7744 179.3730  1.86231579 31440
BEIDOU-3 M16 (C35)      
1 43647U 18078A   23124.59216422 -.00000061  00000+0  10000-3 0  9992
2 43647  54.9797 339.5621 0008338  14.8787 334.0817  1.86227649 30939
BEIDOU-3 M15 (C34)      
1 43648U 18078B   23125.59006446 -.00000061  00000+0  00000+0 0  9992
2 43648  54.9748 339.5324 0005415  27.3081 180.9275  1.86232509 30976
BEIDOU-3 G1 (C59)       
1 43683U 18085A   23124.94963253 -.00000262  00000+0  00000+0 0  9998
2 43683   1.2598 133.8748 0004824 312.2717 258.2729  1.00266182 16633
BEIDOU-3 M17 (C36)      
1 43706U 18093A   23125.42854116  .00000030  00000+0  00000+0 0  9996
2 43706  54.2789 220.9833 0008817 276.2315  83.7052  1.86231962 30314
BEIDOU-3 M18 (C37)      
1 43707U 18093B   23125.30208992  .00000029  00000+0  00000+0 0  9997
2 43707  54.2804 220.9774 0006677 308.9368  57.0971  1.86229771 30320
BEIDOU-3 IGSO-1 (C38)   
1 44204U 19023A   23125.28841207 -.00000230  00000+0  00000+0 0  9998
2 44204  57.0405  49.5345 0018874 207.3720 188.8396  1.00265774 14949
BEIDOU-2 G8 (C01)       
1 44231U 19027A   23125.01160616 -.00000231  00000+0  00000+0 0  9992
2 44231   1.6523  81.0387 0004287 131.6025 158.6942  1.00269015 14643
BEIDOU-3 IGSO-2 (C39)   
1 44337U 19035A   23125.02271751 -.00000052  00000+0  00000+0 0  9993
2 44337  55.1394 168.8683 0030535 200.8328 339.5036  1.00259085 14272
BEIDOU-3 M24 (C46)      
1 44542U 19061A   23124.29176156  .00000019  00000+0  00000+0 0  9993
2 44542  54.5063 221.2271 0007247 346.1849  13.8237  1.86231177 24563
BEIDOU-3 M23 (C45)      
1 44543U 19061B   23124.84600649  .00000025  00000+0  00000+0 0  9991
2 44543  54.5055 221.1764 0004391 339.0016 304.3298  1.86231643 24568
BEIDOU-3 IGSO-3 (C40)   
1 44709U 19073A   23124.87345052 -.00000188  00000+0  00000+0 0  9996
2 44709  56.7465 293.0283 0030501 177.1718 185.5457  1.00264968 13024
BEIDOU-3 M22 (C44)      
1 44793U 19078A   23123.25697279 -.00000063  00000+0  10000-3 0  9993
2 44793  54.8293 339.5909 0007319  22.0793 108.1177  1.86232143 23405
BEIDOU-3 M21 (C43)      
1 44794U 19078B   23123.40761012 -.00000063  00000+0  00000+0 0  9993
2 44794  54.8030 339.5706 0005171  19.0932 124.3378  1.86232612 23409
BEIDOU-3 M19 (C41)      
1 44864U 19090A   23124.85563377  .00000043  00000+0  00000+0 0  9996
2 44864  55.6210 100.7595 0019711 276.9678 311.3560  1.86231857 23014
BEIDOU-3 M20 (C42)      
1 44865U 19090B   23124.61094944  .00000044  00000+0  00000+0 0  9991
2 44865  55.6225 100.8004 0017712 288.7804 225.3036  1.86231771 22980
BEIDOU-3 G2 (C60)       
1 45344U 20017A   23124.95188323 -.00000126  00000+0  00000+0 0  9999
2 45344   2.0012   9.5970 0002709  74.2388 201.4430  1.00270818 11842
BEIDOU-3 G3 (C61)       
1 45807U 20040A   23125.08707647 -.00000339  00000+0  00000+0 0  9996
2 45807   0.7787 323.8167 0005893 327.2333  73.6050  1.00271385 10664
